YAOGAN-46               
1 66313U 25250A   25323.71050301 -.00000009  00000+0  00000+0 0  9993
2 66313  20.0323 106.9378 0049242 131.7872 228.6447  5.35115933   968
SENTINEL-1D             
1 66315U 25251A   25324.23923171  .00000216  00000+0  55161-4 0  9990
2 66315  98.1938 329.5540 0000484 230.9972 129.1185 14.59587352  2252
QPS-SAR-14 (YACHIHOKO-I)
1 66316U 25252A   25325.05993367  .00003843  00000+0  34029-3 0  9995
2 66316  42.0035 194.1989 0008267 358.4753   1.6045 14.97383062  2288
ELECTRON R/B            
1 66317U 25252B   25325.04682429  .00726303  17922-3  15262-2 0  9994
2 66317  41.9936 185.2531 0186861 342.7927  16.6649 15.74087301  2387
ELECTRON KICK STAGE R/B 
1 66318U 25252C   25323.68195529  .00902842  76259-5  15495-2 0  9995
2 66318  41.9848 193.2188 0172903 124.1320 237.6068 15.79668006  2177
STARLINK-35442          
1 66319U 25253A   25325.16668980 -.00526716  00000+0 -36104-2 0  9997
2 66319  42.9995 111.5945 0001336 273.0019 170.0079 15.75253011  3553
STARLINK-34616          
1 66320U 25253B   25325.16668980 -.00464714  00000+0 -31684-2 0  9996
2 66320  42.9994 111.5888 0001521 261.1041 183.8228 15.75205702  3663
STARLINK-34615          
1 66321U 25253C   25325.16668980 -.00448280  00000+0 -30517-2 0  9991
2 66321  42.9996 111.5840 0001679 265.2509 181.5938 15.75195328  3500
STARLINK-35292          
1 66322U 25253D   25325.00002315 -.00000742  00000+0 -17217-5 0  9991
2 66322  43.0037 112.5765 0001661 278.4915 309.8619 15.75033530  3433
STARLINK-35309          
1 66323U 25253E   25325.16668980 -.00546964  00000+0 -37554-2 0  9999
2 66323  42.9997 111.5513 0001469 259.4948 200.7643 15.75268814  3462
STARLINK-35506          
1 66324U 25253F   25325.16668980 -.00541770  00000+0 -37176-2 0  9990
2 66324  42.9998 111.5697 0001692 262.6565 189.9313 15.75266394  3559
STARLINK-35504          
1 66325U 25253G   25325.16668980 -.00523707  00000+0 -35889-2 0  9990
2 66325  42.9998 111.5602 0001448 272.5899 183.8441 15.75249422  3463
STARLINK-35479          
1 66326U 25253H   25325.16668980 -.00517072  00000+0 -35415-2 0  9994
2 66326  42.9994 111.5444 0001552 283.9245 178.2608 15.75243611  3558
STARLINK-35507          
1 66327U 25253J   25325.16668980 -.00515779  00000+0 -35316-2 0  9997
2 66327  42.9998 111.5747 0001562 264.2685 186.4137 15.75246437  3557
STARLINK-35460          
1 66328U 25253K   25325.16668980 -.00518971  00000+0 -35552-2 0  9997
2 66328  42.9995 111.5295 0001508 265.8148 202.1257 15.75244266  3551
STARLINK-35505          
1 66329U 25253L   25325.16668980 -.00521460  00000+0 -35721-2 0  9993
2 66329  42.9996 111.5801 0001592 276.5803 172.1802 15.75251693  3460
STARLINK-35512          
1 66330U 25253M   25325.16668980 -.00519760  00000+0 -35607-2 0  9998
2 66330  42.9999 111.5556 0001419 274.5057 183.8439 15.75246296  3467
STARLINK-35257          
1 66331U 25253N   25325.16668980 -.00522069  00000+0 -35766-2 0  9991
2 66331  42.9998 111.5161 0001613 267.3921 206.2950 15.75250592  3197
STARLINK-35322          
1 66332U 25253P   25325.16668980 -.00426233  00000+0 -28964-2 0  9990
2 66332  42.9998 111.5399 0001601 282.8206 181.2832 15.75176877  3460
STARLINK-35400          
1 66333U 25253Q   25325.16668980 -.00506555  00000+0 -34663-2 0  9990
2 66333  42.9996 111.5201 0001364 274.1967 197.5770 15.75236761  3465
STARLINK-35407          
1 66334U 25253R   25325.16668980 -.00539441  00000+0 -37019-2 0  9999
2 66334  42.9997 111.5357 0001437 269.0421 196.9715 15.75260494  3460
STARLINK-35417          
1 66335U 25253S   25325.16668980 -.00544070  00000+0 -37347-2 0  9998
2 66335  42.9998 111.4962 0001744 256.4743 224.8708 15.75264299  3461
STARLINK-35404          
1 66336U 25253T   25325.16668980 -.00547706  00000+0 -37620-2 0  9992
2 66336  42.9994 111.5118 0001314 281.1699 194.4330 15.75262908  3558
STARLINK-34783          
1 66337U 25253U   25325.16668980 -.00472795  00000+0 -32266-2 0  9999
2 66337  42.9997 111.4924 0001471 277.8377 205.4321 15.75205844  3510
STARLINK-35477          
1 66338U 25253V   25325.16668980 -.00533265  00000+0 -36570-2 0  9992
2 66338  42.9995 111.5021 0001762 265.9238 213.5088 15.75257163  3550
STARLINK-35443          
1 66339U 25253W   25325.16668980 -.00467762  00000+0 -31899-2 0  9990
2 66339  42.9995 111.4766 0001578 263.5186 225.4961 15.75208295  3517
STARLINK-35218          
1 66340U 25253X   25325.16668980 -.00448641  00000+0 -30539-2 0  9997
2 66340  42.9996 111.5062 0001802 259.1632 218.3471 15.75197273  3551
STARLINK-35522          
1 66341U 25253Y   25325.16668980 -.00538699  00000+0 -36961-2 0  9996
2 66341  42.9998 111.5274 0001589 270.6831 199.1664 15.75261749  3550
STARLINK-35535          
1 66342U 25253Z   25325.16668980 -.00527133  00000+0 -36131-2 0  9997
2 66342  42.9998 111.4815 0001518 263.2613 223.8402 15.75253779  3468
STARLINK-35467          
1 66343U 25253AA  25325.16668980 -.00528095  00000+0 -36201-2 0  9994
2 66343  42.9991 111.4857 0001509 260.3796 224.8051 15.75253978  3460
STARLINK-35511          
1 66344U 25253AB  25325.16668980 -.00523640  00000+0 -35895-2 0  9994
2 66344  42.9993 111.4629 0001453 258.4747 236.3113 15.75242527  3467
STARLINK-35440          
1 66345U 25253AC  25325.16668980 -.00547367  00000+0 -37592-2 0  9993
2 66345  42.9995 111.4695 0001445 267.8851 223.0506 15.75264199  3462
STARLINK-35482          
1 66346U 25253AD  25325.16668980 -.00556261  00000+0 -38232-2 0  9999
2 66346  42.9990 111.4661 0001514 272.2930 220.5584 15.75270125  3550
STARLINK-35438          
1 66347U 25253AE  25325.16668980 -.00447430  00000+0 -30453-2 0  9994
2 66347  42.9990 111.4564 0001709 264.4226 232.2608 15.75197176  3461
STARLINK-35849          
1 66348U 25254A   25325.16668980 -.01266699  00000+0 -91974-2 0  9998
2 66348  53.1589  22.0356 0001175  82.8101 280.7573 15.75237449  3453
STARLINK-35848          
1 66349U 25254B   25325.16668980 -.01259985  00000+0 -91473-2 0  9993
2 66349  53.1591  22.0312 0000871  87.5154 277.9747 15.75230099  3456
STARLINK-35829          
1 66350U 25254C   25325.16668980 -.01075170  00000+0 -78868-2 0  9990
2 66350  53.1590  22.0264 0000824  77.4101 290.1903 15.75005034  3451
STARLINK-35828          
1 66351U 25254D   25325.16668980 -.00900975  00000+0 -66423-2 0  9994
2 66351  53.1589  22.0219 0000859 101.7478 267.8883 15.74854281  3426
STARLINK-35850          
1 66352U 25254E   25325.16668980 -.00853698  00000+0 -62823-2 0  9994
2 66352  53.1591  22.0179 0001023  75.0472 296.5777 15.74762790  3408
STARLINK-35869          
1 66353U 25254F   25325.16668980 -.00739104  00000+0 -53965-2 0  9997
2 66353  53.1590  22.0134 0001075 109.5106 264.1219 15.74625961  3458
STARLINK-35895          
1 66354U 25254G   25325.16668980 -.00566753  00000+0 -40783-2 0  9990
2 66354  53.1588  22.0089 0001116  61.6963 313.9271 15.74487797  3454
STARLINK-35861          
1 66355U 25254H   25325.16668980 -.00342830  00000+0 -24119-2 0  9994
2 66355  53.1592  22.0055 0001090 115.0142 262.5799 15.74388459  3456
STARLINK-35851          
1 66356U 25254J   25325.16668980 -.00262754  00000+0 -18348-2 0  9998
2 66356  53.1591  22.0012 0001207 104.3097 275.2327 15.74331195  3452
STARLINK-35817          
1 66357U 25254K   25325.16668980 -.00170629  00000+0 -11805-2 0  9999
2 66357  53.1591  21.9973 0000774  89.9040 291.5922 15.74267389  3456
STARLINK-35807          
1 66358U 25254L   25325.16668980 -.00091181  00000+0 -62419-3 0  9993
2 66358  53.1592  21.9927 0001256  89.2709 294.1641 15.74219417  3454
STARLINK-35805          
1 66359U 25254M   25325.16668980  .00005124  00000+0  39313-4 0  9992
2 66359  53.1589  21.9893 0001416 102.1120 283.2491 15.74160319  3428
STARLINK-35823          
1 66360U 25254N   25325.16668980 -.00025138  00000+0 -16785-3 0  9990
2 66360  53.1589  21.9806 0001030  82.8236 306.3588 15.74190339  3450
STARLINK-35813          
1 66361U 25254P   25325.16668980  .00014300  00000+0  10188-3 0  9999
2 66361  53.1591  21.9851 0000944  56.6489 330.6182 15.74164039  3454
STARLINK-35822          
1 66362U 25254Q   25325.16668980 -.00062265  00000+0 -42362-3 0  9994
2 66362  53.1590  21.9731 0001004  86.7034 306.3157 15.74208778  3450
STARLINK-35806          
1 66363U 25254R   25325.16668980 -.00052530  00000+0 -35647-3 0  9997
2 66363  53.1590  21.9766 0000936  98.7494 292.3588 15.74198299  3420
STARLINK-35797          
1 66364U 25254S   25325.16668980 -.00071116  00000+0 -48483-3 0  9991
2 66364  53.1591  21.9685 0001116  99.1325 295.8074 15.74214854  3458
STARLINK-35827          
1 66365U 25254T   25325.16668980 -.00079323  00000+0 -54119-3 0  9993
2 66365  53.1592  21.9612 0001347 100.1087 298.6067 15.74240445  3429
STARLINK-35845          
1 66366U 25254U   25325.16668980 -.00104260  00000+0 -71516-3 0  9993
2 66366  53.1591  21.9646 0001212  96.4566 300.3935 15.74228755  3454
STARLINK-35846          
1 66367U 25254V   25325.16668980 -.00127235  00000+0 -87476-3 0  9993
2 66367  53.1591  21.9566 0001579  88.6092 312.0454 15.74262242  3409
STARLINK-34861          
1 66368U 25254W   25325.16668980 -.00014717  00000+0 -96376-4 0  9994
2 66368  53.1590  21.9477 0000851 116.0971 288.4201 15.74187319  3502
STARLINK-35795          
1 66369U 25254X   25325.16668980 -.00080883  00000+0 -55212-3 0  9995
2 66369  53.1590  21.9516 0000749  75.1314 327.4460 15.74237752  3406
STARLINK-35824          
1 66370U 25254Y   25325.16668980 -.00026348  00000+0 -17616-3 0  9999
2 66370  53.1592  21.9440 0001482  94.0501 312.3862 15.74188423  3420
STARLINK-35804          
1 66371U 25254Z   25325.16668980 -.00105203  00000+0 -72158-3 0  9990
2 66371  53.1591  21.9359 0000966  91.5803 318.6834 15.74234881  3453
STARLINK-35821          
1 66372U 25254AA  25325.16668980 -.00052545  00000+0 -35641-3 0  9997
2 66372  53.1592  21.9406 0001326  99.0887 309.2659 15.74207597  3459
